[{"OBJECT_NAME":"STARLINK-31838","OBJECT_ID":"2024-118T","EPOCH":"2026-03-09T03:49:12.104832","MEAN_MOTION":15.30209891,"ECCENTRICITY":0.00011058,"INCLINATION":53.1616,"RA_OF_ASC_NODE":29.2881,"ARG_OF_PERICENTER":105.1855,"MEAN_ANOMALY":254.9268,"EPHEMERIS_TYPE":0,"CLASSIFICATION_TYPE":"U","NORAD_CAT_ID":60130,"ELEMENT_SET_NO":999,"REV_AT_EPOCH":9561,"BSTAR":0.0001883876,"MEAN_MOTION_DOT":5.226e-5,"MEAN_MOTION_DDOT":0},{"OBJECT_NAME":"COSMOS 1862","OBJECT_ID":"1987-055A","EPOCH":"2026-03-09T22:37:02.390592","MEAN_MOTION":15.30492139,"ECCENTRICITY":0.00097484,"INCLINATION":82.4856,"RA_OF_ASC_NODE":47.1862,"ARG_OF_PERICENTER":26.6325,"MEAN_ANOMALY":333.5414,"EPHEMERIS_TYPE":0,"CLASSIFICATION_TYPE":"U","NORAD_CAT_ID":18152,"ELEMENT_SET_NO":999,"REV_AT_EPOCH":8987,"BSTAR":0.00034125048,"MEAN_MOTION_DOT":0.00010107,"MEAN_MOTION_DDOT":0}]
